0422P         2022 01 13.7599  3.105144  0.508712  305.1514   36.0309   39.5505  20220519  11.0  4.0  422P/Christensen                                         MPEC 2022-A21
0423P         2021 09 18.4211  5.419878  0.121091   80.2931   33.3032    8.3459  20220519   8.0  4.0  423P/Lemmon                                              MPEC 2022-A21
0424P         2021 10 31.6368  1.362775  0.691275  312.4802   51.1770    8.6854  20220519  17.0  4.0  424P/LaSagra                                             MPEC 2022-CN4
0425P         2021 09 20.5005  2.890207  0.543561  200.7568  210.0841   16.4204  20220519  12.0  4.0  425P/Kowalski                                            MPEC 2022-GA9
0426P         2023 09 13.9297  2.672347  0.161338  119.1045  280.5213   17.7726  20220519  13.5  4.0  426P/PANSTARRS                                           MPEC 2021-Y10
0428P         2021 05 14.6694  1.674349  0.519488   36.8260  299.3376    8.5147  20220519  15.0  4.0  428P/Gibbs                                               MPEC 2022-J42
0429P         2022 01  2.1464  1.806255  0.491298   75.5405  322.0733    7.5219  20220519  15.5  4.0  429P/LINEAR-Hill                                         MPEC 2022-H04
0430P         2021 12  2.2102  1.554581  0.499578   94.4951   54.6719    4.4750  20220519  16.5  4.0  430P/Scotti                                              MPEC 2022-J42
0431P         2022 02 13.3713  1.813693  0.477671  199.8587  202.8461   22.3921  20220519  14.0  4.0  431P/Scotti                                              MPEC 2022-ED3
0432P         2021 08 30.3411  2.300814  0.242012  105.2348  239.1429   10.0694  20220519  17.0  4.0  432P/PANSTARRS                                           MPEC 2021-U31
0434P         2021 10 25.8483  2.995520  0.274381  128.0577  288.9682    6.3395  20220519  13.0  4.0  434P/Tenagra                                             MPEC 2022-GA9
0435P         2021 07 27.4673  2.056413  0.318706  244.1541   98.5499   18.8826  20220519  17.0  4.0  435P/PANSTARRS                                           MPEC 2021-W31
0436P         2021 12  8.5035  1.957645  0.669811  282.5976   87.1896   20.2104  20220519  14.5  4.0  436P/Garradd                                             MPEC 2022-C56
0437P         2022 08 18.4294  3.400186  0.254154  206.7125  245.8687    3.6896  20220519  13.0  4.0  437P/PANSTARRS                                           MPEC 2021-Y10
0438P         2020 04  5.3605  2.247841  0.415721   58.9536  260.1543    8.2874  20220519  14.5  4.0  438P/Christensen                                         MPEC 2021-W47
0439P         2021 08 26.1172  1.850265  0.469507  342.0041   56.4153    7.1142  20220519  13.5  4.0  439P/LINEAR                                              MPEC 2022-C56
0440P         2022 03 29.9470  2.056225  0.760475  183.3168  328.8822   12.3394  20220519  15.5  4.0  440P/Kobayashi                                           MPEC 2022-J42
0441P         2025 09  7.9670  3.325998  0.195597  178.7367  143.6162    2.5745  20220519  13.5  4.0  441P/PANSTARRS                                           MPEC 2022-HC2
0001I         2017 09  9.4886  0.255240  1.199252  241.6845   24.5997  122.6778  20170904  23.0  2.0  1I/`Oumuamua                                             MPC107687
0002I         2019 12  8.5549  2.006548  3.356636  209.1251  308.1480   44.0527  20191223  11.0  4.0  2I/Borisov                                               MPEC 2020-K19
